[{"OBJECT_NAME":"TIANQI-40","OBJECT_ID":"2026-010D","EPOCH":"2026-03-09T13:59:28.118112","MEAN_MOTION":13.99111131,"ECCENTRICITY":0.0011419,"INCLINATION":44.9822,"RA_OF_ASC_NODE":165.0841,"ARG_OF_PERICENTER":228.5546,"MEAN_ANOMALY":131.4306,"EPHEMERIS_TYPE":0,"CLASSIFICATION_TYPE":"U","NORAD_CAT_ID":67479,"ELEMENT_SET_NO":999,"REV_AT_EPOCH":744,"BSTAR":0.00022524,"MEAN_MOTION_DOT":2.0e-6,"MEAN_MOTION_DDOT":0},{"OBJECT_NAME":"OBJECT D","OBJECT_ID":"2021-091D","EPOCH":"2026-03-10T00:10:59.261376","MEAN_MOTION":14.00131049,"ECCENTRICITY":0.0010579,"INCLINATION":97.4655,"RA_OF_ASC_NODE":119.9894,"ARG_OF_PERICENTER":264.4644,"MEAN_ANOMALY":95.5318,"EPHEMERIS_TYPE":0,"CLASSIFICATION_TYPE":"U","NORAD_CAT_ID":49318,"ELEMENT_SET_NO":999,"REV_AT_EPOCH":23420,"BSTAR":0.00012017787,"MEAN_MOTION_DOT":1.46e-6,"MEAN_MOTION_DDOT":0}]
